CCSDS_OMM_VERS = 2.0
CREATION_DATE  = 
ORIGINATOR     = 

OBJECT_NAME    = SL-14 R/B
OBJECT_ID      = 1991-042B
CENTER_NAME    = EARTH
REF_FRAME      = TEME
TIME_SYSTEM    = UTC
MEAN_ELEMENT_THEORY = SGP/SGP4

EPOCH          = 2026-01-19T17:35:56.723424
MEAN_MOTION    = 14.81777507
ECCENTRICITY   = .00181568
INCLINATION    = 82.4923
RA_OF_ASC_NODE = 266.0998
ARG_OF_PERICENTER = 45.5266
MEAN_ANOMALY   = 314.7428

EPHEMERIS_TYPE = 0
CLASSIFICATION_TYPE = U
NORAD_CAT_ID   = 21423
ELEMENT_SET_NO = 999
REV_AT_EPOCH   = 84582
BSTAR          = .46389099E-4
MEAN_MOTION_DOT = .39E-5
MEAN_MOTION_DDOT = 0

CCSDS_OMM_VERS = 2.0
CREATION_DATE  = 
ORIGINATOR     = 

OBJECT_NAME    = ERS-1
OBJECT_ID      = 1991-050A
CENTER_NAME    = EARTH
REF_FRAME      = TEME
TIME_SYSTEM    = UTC
MEAN_ELEMENT_THEORY = SGP/SGP4

EPOCH          = 2026-01-19T23:16:09.134688
MEAN_MOTION    = 14.39400346
ECCENTRICITY   = .00317173
INCLINATION    = 98.7896
RA_OF_ASC_NODE = 36.9801
ARG_OF_PERICENTER = 348.7442
MEAN_ANOMALY   = 11.3032

EPHEMERIS_TYPE = 0
CLASSIFICATION_TYPE = U
NORAD_CAT_ID   = 21574
ELEMENT_SET_NO = 999
REV_AT_EPOCH   = 80872
BSTAR          = .16485808E-3
MEAN_MOTION_DOT = .469E-5
MEAN_MOTION_DDOT = 0

CCSDS_OMM_VERS = 2.0
CREATION_DATE  = 
ORIGINATOR     = 

OBJECT_NAME    = ARIANE 40 R/B
OBJECT_ID      = 1991-050F
CENTER_NAME    = EARTH
REF_FRAME      = TEME
TIME_SYSTEM    = UTC
MEAN_ELEMENT_THEORY = SGP/SGP4

EPOCH          = 2026-01-19T17:17:05.737920
MEAN_MOTION    = 14.42847123
ECCENTRICITY   = .0002596
INCLINATION    = 98.2109
RA_OF_ASC_NODE = 73.7706
ARG_OF_PERICENTER = 201.6380
MEAN_ANOMALY   = 158.4702

EPHEMERIS_TYPE = 0
CLASSIFICATION_TYPE = U
NORAD_CAT_ID   = 21610
ELEMENT_SET_NO = 999
REV_AT_EPOCH   = 81193
BSTAR          = .96448726E-4
MEAN_MOTION_DOT = .28E-5
MEAN_MOTION_DDOT = 0

CCSDS_OMM_VERS = 2.0
CREATION_DATE  = 
ORIGINATOR     = 

OBJECT_NAME    = INTERCOSMOS 25
OBJECT_ID      = 1991-086A
CENTER_NAME    = EARTH
REF_FRAME      = TEME
TIME_SYSTEM    = UTC
MEAN_ELEMENT_THEORY = SGP/SGP4

EPOCH          = 2026-01-19T20:41:14.221824
MEAN_MOTION    = 12.11860552
ECCENTRICITY   = .14860706
INCLINATION    = 82.6088
RA_OF_ASC_NODE = 339.5170
ARG_OF_PERICENTER = 222.1612
MEAN_ANOMALY   = 125.5365

EPHEMERIS_TYPE = 0
CLASSIFICATION_TYPE = U
NORAD_CAT_ID   = 21819
ELEMENT_SET_NO = 999
REV_AT_EPOCH   = 49077
BSTAR          = .83466029E-4
MEAN_MOTION_DOT = .428E-5
MEAN_MOTION_DDOT = 0

CCSDS_OMM_VERS = 2.0
CREATION_DATE  = 
ORIGINATOR     = 

OBJECT_NAME    = SL-8 R/B
OBJECT_ID      = 1992-008B
CENTER_NAME    = EARTH
REF_FRAME      = TEME
TIME_SYSTEM    = UTC
MEAN_ELEMENT_THEORY = SGP/SGP4

EPOCH          = 2026-01-19T20:32:53.413728
MEAN_MOTION    = 13.75966764
ECCENTRICITY   = .00333315
INCLINATION    = 82.9289
RA_OF_ASC_NODE = 304.1000
ARG_OF_PERICENTER = 271.4803
MEAN_ANOMALY   = 150.7331

EPHEMERIS_TYPE = 0
CLASSIFICATION_TYPE = U
NORAD_CAT_ID   = 21876
ELEMENT_SET_NO = 999
REV_AT_EPOCH   = 70270
BSTAR          = .64900035E-4
MEAN_MOTION_DOT = .78E-6
MEAN_MOTION_DDOT = 0

CCSDS_OMM_VERS = 2.0
CREATION_DATE  = 
ORIGINATOR     = 

OBJECT_NAME    = SL-8 R/B
OBJECT_ID      = 1992-020B
CENTER_NAME    = EARTH
REF_FRAME      = TEME
TIME_SYSTEM    = UTC
MEAN_ELEMENT_THEORY = SGP/SGP4

EPOCH          = 2026-01-19T23:12:52.833888
MEAN_MOTION    = 13.75539544
ECCENTRICITY   = .00301689
INCLINATION    = 82.9300
RA_OF_ASC_NODE = 189.9291
ARG_OF_PERICENTER = 74.5981
MEAN_ANOMALY   = 38.3874

EPHEMERIS_TYPE = 0
CLASSIFICATION_TYPE = U
NORAD_CAT_ID   = 21938
ELEMENT_SET_NO = 999
REV_AT_EPOCH   = 69443
BSTAR          = .18382145E-3
MEAN_MOTION_DOT = .193E-5
MEAN_MOTION_DDOT = 0

CCSDS_OMM_VERS = 2.0
CREATION_DATE  = 
ORIGINATOR     = 

OBJECT_NAME    = USA 81
OBJECT_ID      = 1992-023A
CENTER_NAME    = EARTH
REF_FRAME      = TEME
TIME_SYSTEM    = UTC
MEAN_ELEMENT_THEORY = SGP/SGP4

EPOCH          = 2026-01-19T19:52:12.194688
MEAN_MOTION    = 14.32343928
ECCENTRICITY   = .00019001
INCLINATION    = 85.0108
RA_OF_ASC_NODE = 159.6118
ARG_OF_PERICENTER = 116.9419
MEAN_ANOMALY   = 243.1968

EPHEMERIS_TYPE = 0
CLASSIFICATION_TYPE = U
NORAD_CAT_ID   = 21949
ELEMENT_SET_NO = 999
REV_AT_EPOCH   = 8779
BSTAR          = .67191904E-4
MEAN_MOTION_DOT = .201E-5
MEAN_MOTION_DDOT = 0

CCSDS_OMM_VERS = 2.0
CREATION_DATE  = 
ORIGINATOR     = 

OBJECT_NAME    = COSMOS 2219
OBJECT_ID      = 1992-076A
CENTER_NAME    = EARTH
REF_FRAME      = TEME
TIME_SYSTEM    = UTC
MEAN_ELEMENT_THEORY = SGP/SGP4

EPOCH          = 2026-01-19T17:04:25.153536
MEAN_MOTION    = 14.14081116
ECCENTRICITY   = .00208412
INCLINATION    = 71.0616
RA_OF_ASC_NODE = 120.4592
ARG_OF_PERICENTER = 274.9302
MEAN_ANOMALY   = 84.9442

EPHEMERIS_TYPE = 0
CLASSIFICATION_TYPE = U
NORAD_CAT_ID   = 22219
ELEMENT_SET_NO = 999
REV_AT_EPOCH   = 71145
BSTAR          = -.31277766E-4
MEAN_MOTION_DOT = -.107E-5
MEAN_MOTION_DDOT = 0

CCSDS_OMM_VERS = 2.0
CREATION_DATE  = 
ORIGINATOR     = 

OBJECT_NAME    = SL-16 R/B
OBJECT_ID      = 1992-076B
CENTER_NAME    = EARTH
REF_FRAME      = TEME
TIME_SYSTEM    = UTC
MEAN_ELEMENT_THEORY = SGP/SGP4

EPOCH          = 2026-01-19T23:40:15.373920
MEAN_MOTION    = 14.16850437
ECCENTRICITY   = .00126636
INCLINATION    = 71.0010
RA_OF_ASC_NODE = 290.9673
ARG_OF_PERICENTER = 180.3706
MEAN_ANOMALY   = 259.5329

EPHEMERIS_TYPE = 0
CLASSIFICATION_TYPE = U
NORAD_CAT_ID   = 22220
ELEMENT_SET_NO = 999
REV_AT_EPOCH   = 71493
BSTAR          = -.15545803E-4
MEAN_MOTION_DOT = -.79E-6
MEAN_MOTION_DDOT = 0

CCSDS_OMM_VERS = 2.0
CREATION_DATE  = 
ORIGINATOR     = 

OBJECT_NAME    = COSMOS 2221
OBJECT_ID      = 1992-080A
CENTER_NAME    = EARTH
REF_FRAME      = TEME
TIME_SYSTEM    = UTC
MEAN_ELEMENT_THEORY = SGP/SGP4

EPOCH          = 2026-01-19T22:43:37.854624
MEAN_MOTION    = 14.95950466
ECCENTRICITY   = .00147585
INCLINATION    = 82.5061
RA_OF_ASC_NODE = 325.7522
ARG_OF_PERICENTER = 3.6271
MEAN_ANOMALY   = 356.5055

EPHEMERIS_TYPE = 0
CLASSIFICATION_TYPE = U
NORAD_CAT_ID   = 22236
ELEMENT_SET_NO = 999
REV_AT_EPOCH   = 77350
BSTAR          = .2398786E-3
MEAN_MOTION_DOT = .2717E-4
MEAN_MOTION_DDOT = 0

CCSDS_OMM_VERS = 2.0
CREATION_DATE  = 
ORIGINATOR     = 

OBJECT_NAME    = SL-16 R/B
OBJECT_ID      = 1992-093B
CENTER_NAME    = EARTH
REF_FRAME      = TEME
TIME_SYSTEM    = UTC
MEAN_ELEMENT_THEORY = SGP/SGP4

EPOCH          = 2026-01-19T16:39:48.884256
MEAN_MOTION    = 14.15440117
ECCENTRICITY   = .00040437
INCLINATION    = 71.0223
RA_OF_ASC_NODE = 107.1235
ARG_OF_PERICENTER = 349.9996
MEAN_ANOMALY   = 10.1046

EPHEMERIS_TYPE = 0
CLASSIFICATION_TYPE = U
NORAD_CAT_ID   = 22285
ELEMENT_SET_NO = 999
REV_AT_EPOCH   = 70622
BSTAR          = .16883533E-3
MEAN_MOTION_DOT = .282E-5
MEAN_MOTION_DDOT = 0

CCSDS_OMM_VERS = 2.0
CREATION_DATE  = 
ORIGINATOR     = 

OBJECT_NAME    = COSMOS 2228
OBJECT_ID      = 1992-094A
CENTER_NAME    = EARTH
REF_FRAME      = TEME
TIME_SYSTEM    = UTC
MEAN_ELEMENT_THEORY = SGP/SGP4

EPOCH          = 2026-01-19T22:16:45.423264
MEAN_MOTION    = 14.96930940
ECCENTRICITY   = .00195698
INCLINATION    = 82.5189
RA_OF_ASC_NODE = 283.9953
ARG_OF_PERICENTER = 104.1312
MEAN_ANOMALY   = 256.2087

EPHEMERIS_TYPE = 0
CLASSIFICATION_TYPE = U
NORAD_CAT_ID   = 22286
ELEMENT_SET_NO = 999
REV_AT_EPOCH   = 76876
BSTAR          = .27179845E-3
MEAN_MOTION_DOT = .3159E-4
MEAN_MOTION_DDOT = 0

