SL-14 R/B               
1 21423U 91042B   26019.73329541  .00000390  00000+0  46389-4 0  9995
2 21423  82.4923 266.0998 0018156  45.5266 314.7428 14.81777507845824
ERS-1                   
1 21574U 91050A   26019.96955017  .00000469  00000+0  16486-3 0  9990
2 21574  98.7896  36.9801 0031717 348.7442  11.3032 14.39400346808725
ARIANE 40 R/B           
1 21610U 91050F   26019.72020530  .00000280  00000+0  96449-4 0  9997
2 21610  98.2109  73.7706 0002596 201.6380 158.4702 14.42847123811938
INTERCOSMOS 25          
1 21819U 91086A   26019.86197016  .00000428  00000+0  83466-4 0  9995
2 21819  82.6088 339.5170 1486070 222.1612 125.5365 12.11860552490770
SL-8 R/B                
1 21876U 92008B   26019.85617377  .00000078  00000+0  64900-4 0  9992
2 21876  82.9289 304.1000 0033331 271.4803 150.7331 13.75966764702700
SL-8 R/B                
1 21938U 92020B   26019.96727817  .00000193  00000+0  18382-3 0  9998
2 21938  82.9300 189.9291 0030168  74.5981  38.3874 13.75539544694433
USA 81                  
1 21949U 92023A   26019.82791892  .00000201  00000+0  67192-4 0  9996
2 21949  85.0108 159.6118 0001900 116.9419 243.1968 14.32343928 87794
COSMOS 2219             
1 22219U 92076A   26019.71140224 -.00000107  00000+0 -31278-4 0  9993
2 22219  71.0616 120.4592 0020841 274.9302  84.9442 14.14081116711450
SL-16 R/B               
1 22220U 92076B   26019.98628905 -.00000079  00000+0 -15546-4 0  9999
2 22220  71.0010 290.9673 0012663 180.3706 259.5329 14.16850437714936
COSMOS 2221             
1 22236U 92080A   26019.94696591  .00002717  00000+0  23988-3 0  9990
2 22236  82.5061 325.7522 0014758   3.6271 356.5055 14.95950466773509
SL-16 R/B               
1 22285U 92093B   26019.69431579  .00000282  00000+0  16884-3 0  9995
2 22285  71.0223 107.1235 0004043 349.9996  10.1046 14.15440117706222
COSMOS 2228             
1 22286U 92094A   26019.92830351  .00003159  00000+0  27180-3 0  9991
2 22286  82.5189 283.9953 0019569 104.1312 256.2087 14.96930940768765
